RADUGA 1                
1 08513U 75123A   24184.28556529 -.00000004  00000+0  00000+0 0  9999
2 08513   4.6521 277.9508 0006596 244.9482 288.3545  1.00253342187645
RADUGA 2                
1 09416U 76092A   24184.19678133 -.00000019  00000+0  00000+0 0  9990
2 09416   5.3234 280.2275 0026521  18.7831 120.9355  1.00293781122178
RADUGA 3                
1 10159U 77071A   24184.59410265 -.00000328  00000+0  00000+0 0  9991
2 10159   5.9525 283.2175 0008929 259.5762  57.5422  1.00322087169875
RADUGA 4                
1 10987U 78073A   24183.90803910  .00000094  00000+0  00000+0 0  9999
2 10987   6.6006 287.2816 0008389  19.5379 356.7296  1.00205197112435
RADUGA 5                
1 11343U 79035A   24183.88629306 -.00000175  00000+0  00000+0 0  9998
2 11343   7.0837 290.4284 0006295 193.4479 200.3702  1.00281488122187
RADUGA 6                
1 11708U 80016A   24183.89563440  .00000151  00000+0  00000+0 0  9994
2 11708   7.4727 293.9275 0002409 224.6084 125.7962  1.00272668114981
RADUGA 7                
1 12003U 80081A   24184.50892854  .00000132  00000+0  00000+0 0  9997
2 12003   7.6766 296.1293 0009291 280.0199  87.2130  1.00215778116147
RADUGA 8                
1 12351U 81027A   24184.10968619 -.00000060  00000+0  00000+0 0  9994
2 12351   8.0169 296.5769 0080746 250.1971 123.3992  1.00354280115371
RADUGA 9                
1 12618U 81069A   24183.97965990  .00000156  00000+0  00000+0 0  9994
2 12618   8.2731 300.0152 0004283 171.7675 198.2018  1.00246281 40178
RADUGA 10               
1 12897U 81102A   24184.34146399 -.00000111  00000+0  00000+0 0  9999
2 12897   8.3734 301.1230 0005437 202.6623 337.3556  1.00295753110178
RADUGA 11               
1 13669U 82113A   24184.11012131 -.00000160  00000+0  00000+0 0  9995
2 13669  10.6255 316.1464 0039442 272.9528  83.5388  0.97710285114547
RADUGA 12               
1 13974U 83028A   24183.90986656  .00000002  00000+0  00000+0 0  9992
2 13974   9.6785 311.6612 0001893 142.3754 219.1476  1.00268173162218
RADUGA 13               
1 14307U 83088A   24184.63082825 -.00000180  00000+0  00000+0 0  9993
2 14307  10.9111 317.6076 0015878  59.9025 267.7578  0.98175457111921
RADUGA 14               
1 14725U 84016A   24184.41436275 -.00000178  00000+0  00000+0 0  9994
2 14725   9.9615 315.7686 0005308 158.4486  39.5547  1.00290285110933
RADUGA 15               
1 15057U 84063A   24184.54503437  .00000122  00000+0  00000+0 0  9992
2 15057  10.1028 316.7737 0005797 183.2167 358.1767  1.00302806133938
RADUGA 16               
1 15946U 85070A   24184.24857253 -.00000225  00000+0  00000+0 0  9998
2 15946  10.6703 321.6265 0002524 192.9814 185.4705  1.00265084115065
RADUGA 17               
1 16250U 85107A   24184.09910420 -.00000002  00000+0  00000+0 0  9990
2 16250  10.8259 323.1177 0015203 202.9438 154.2468  1.00178229144508
RADUGA 18               
1 16497U 86007A   24184.37853894 -.00000010  00000+0  00000+0 0  9994
2 16497  11.6822 325.9314 0074846 182.8275 171.7203  0.98811110138796
RADUGA 19               
1 17046U 86082A   24183.91646751 -.00000011  00000+0  00000+0 0  9990
2 17046  12.2118 330.0254 0014219 169.4071 194.6638  0.98458679135874
RADUGA 20               
1 17611U 87028A   24184.62901588 -.00000137  00000+0  00000+0 0  9999
2 17611  14.2912 333.3764 0030971 155.3867 143.9442  0.95961597131453
RADUGA 21               
1 18631U 87100A   24184.31507542 -.00000290  00000+0  00000+0 0  9991
2 18631  12.3324 330.4426 0003287 161.5381 195.5740  1.00213159133913
RADUGA 22               
1 19596U 88095A   24184.54694887  .00000125  00000+0  00000+0 0  9996
2 19596  12.4421 335.0384 0008450 167.3303   5.8509  1.00342563114481
RADUGA 23               
1 19928U 89030A   24184.54947253  .00000114  00000+0  00000+0 0  9991
2 19928  12.6365 336.8824 0022462 181.9737   3.4438  1.00209440127686
RADUGA-1 1              
1 20083U 89048A   24184.53846583 -.00000034  00000+0  00000+0 0  9999
2 20083  13.4718 340.0610 0022361 135.3665 215.6487  0.98708783124219
RADUGA 24               
1 20367U 89098A   24184.60712993 -.00000293  00000+0  00000+0 0  9991
2 20367  13.2764 338.9593 0002470 192.9124  64.2451  1.00226538125809
RADUGA 25               
1 20499U 90016A   24184.62558397  .00000002  00000+0  00000+0 0  9994
2 20499  13.0716 339.7343 0006338 170.2199 229.7097  1.00372762125748
RADUGA 26               
1 21016U 90112A   24184.55147404  .00000061  00000+0  00000+0 0  9997
2 21016  13.4784 343.0011 0006697 120.0285  69.8460  1.00282070123095
RADUGA-1 2              
1 21038U 90116A   24184.48170435  .00000008  00000+0  00000+0 0  9998
2 21038  13.5178 343.0525 0008013 128.7632  44.7531  1.00222774 40175
RADUGA 27               
1 21132U 91014A   24184.60994304 -.00000328  00000+0  00000+0 0  9990
2 21132  14.0074 342.3018 0003530 136.3976 124.4543  1.00185637122148
RADUGA 28               
1 21821U 91087A   24184.61612203 -.00000372  00000+0  00000+0 0  9990
2 21821  13.8993 346.2823 0008041 151.5044 113.7583  1.00325662119150
RADUGA 29               
1 22557U 93013A   24184.48292267 -.00000031  00000+0  00000+0 0  9999
2 22557  14.2290 350.4386 0007238 148.0315  24.3769  1.00160476114510
RADUGA 30               
1 22836U 93062A   24184.48501122 -.00000155  00000+0  00000+0 0  9993
2 22836  14.3396 352.4552 0000863 290.8828 251.3934  1.00262314 38837
RADUGA-1 3              
1 22981U 94008A   24184.58269631 -.00000317  00000+0  00000+0 0  9992
2 22981  14.4558 353.5760 0004200 141.0861  93.5910  1.00301555111311
RADUGA 31               
1 23010U 94012A   24184.12021593  .00000101  00000+0  00000+0 0  9994
2 23010  14.4222 353.5892 0005160 131.6189 242.7830  1.00264832111183
RADUGA 32               
1 23448U 94087A   24184.48501122 -.00000155  00000+0  00000+0 0  9991
2 23448  14.4958 356.3327 0006424 218.6993 319.4998  1.00264950125713
RADUGA-1 4              
1 25642U 99010A   24184.12213043  .00000060  00000+0  00000+0 0  9997
2 25642  15.4359   7.5474 0002141 236.2451 134.5531  1.00204712 92781
RADUGA-1 5              
1 26477U 00049A   24184.12308767  .00000034  00000+0  00000+0 0  9997
2 26477  13.5539  13.2370 0004633  92.6379 277.6351  1.00215805 87257
RADUGA-1 6              
1 26936U 01045A   24184.41079378 -.00000205  00000+0  00000+0 0  9990
2 26936  13.9389  19.7403 0017960 182.6602  25.8676  0.97746392 81610
RADUGA-1 7              
1 28194U 04010A   24184.19286531  .00000072  00000+0  00000+0 0  9990
2 28194  12.8429  26.2826 0003350 189.9837 183.4865  1.00364541 74251
RADUGA-1M 1             
1 32373U 07058A   24184.32658312 -.00000143  00000+0  00000+0 0  9994
2 32373   8.5670  58.3128 0003209  40.1648 301.7761  0.99400437 45280
RADUGA-1 8              
1 34264U 09010A   24184.39394194 -.00000225  00000+0  00000+0 0  9998
2 34264  10.7020  48.1237 0012393  19.6768 335.7090  0.99831005 56037
RADUGA-1M 2             
1 36358U 10002A   24184.48622953 -.00000184  00000+0  00000+0 0  9998
2 36358   1.7615  88.3135 0001325   7.0877  85.6331  1.00273533 42922
RADUGA-1M 3             
1 39375U 13062A   24184.47608477  .00000152  00000+0  00000+0 0  9997
2 39375   4.1316  81.1052 0003858 229.7766 176.4705  1.00272357 38945
